{"type":"FeatureCollection","features":[{"type":"Feature","id":1,"geometry":{"type":"Point","coordinates":[112.73416666700007,25.675277778000066]},"properties":{"OBJECTID":1,"文保标题":"大溪村古戏台","文保英文标题":"Daxi Village Ancient Stage","批次":"第八批全国重点文保","公布时间":"2019.10.7","文保类型":"古建筑","时代":"明至清","省":"湖南","市":"郴州","详细地址":"湖南省郴州市桂阳县大溪村","经度":"东经112°44′03″","纬度":"北纬25°40′31″","是否推荐":"是","图片":"daxi.jpg","Longitude_DD":112.73416666666667,"Latitude_DD":25.675277777777779,"Heritage_Level":"国家级","简介":"大溪村古戏台位于桂阳县黄沙坪街道大溪自然村骆氏宗祠内，始建于明嘉靖年间（1522—1566），清嘉庆年间及咸丰四年（1854）曾多次修复。戏台为砖木结构、单檐歇山顶，设八卦藻井，屏风背面还留有清嘉庆年间戏班演出题壁。项目组调研时村内仍可见戏曲主题文化元素，是桂阳湘昆文化的重要实物遗存。","乡镇":"黄沙坪街道"}},{"type":"Feature","id":2,"geometry":{"type":"Point","coordinates":[112.73194444400008,25.81333333300006]},"properties":{"OBJECTID":2,"文保标题":"三郎下露天古戏台","文保英文标题":"Sanlangxia Open-air Ancient Stage","批次":null,"公布时间":null,"文保类型":"古建筑","时代":null,"省":"湖南","市":"郴州","详细地址":"湖南省郴州市桂阳县三郎下村","经度":"东经112°43′55″","纬度":"北纬25°48′48″","是否推荐":"是","图片":"sanlangxia.jpg","Longitude_DD":112.73194444444445,"Latitude_DD":25.813333333333333,"Heritage_Level":"暂无文保等级","简介":"三郎下露天古戏台为村落中的露天式戏台。项目组实地调研时发现，场地长期缺乏使用和维护，整体较为破败，村民对其历史及过往戏曲活动了解也较有限。其现状较直观地反映了部分乡村露天戏台在保护、利用和地方文化记忆传承方面面临的困难。","乡镇":"樟市镇"}},{"type":"Feature","id":3,"geometry":{"type":"Point","coordinates":[112.76361111100005,25.862222222000071]},"properties":{"OBJECTID":3,"文保标题":"竹里村成氏宗祠古戏台","文保英文标题":"Chen's Ancestral Hall Stage in Zhuli Village","批次":"桂阳县第五批县保","公布时间":"2017.4.12","文保类型":"古建筑","时代":"清代嘉庆十二年","省":"湖南","市":"郴州","详细地址":"湖南省郴州市桂阳县竹里村","经度":"东经112°45′49″","纬度":"北纬25°51′44″","是否推荐":"是","图片":"zhuli.jpg","Longitude_DD":112.76361111111112,"Latitude_DD":25.862222222222222,"Heritage_Level":"县级","简介":"竹里村成氏宗祠古戏台至今仍承担一定的乡村公共文化功能。调研中了解到，村里会依托宗祠及戏台开展节庆、体育赛事等集体活动，并与周边村庄形成一定互动。相比仅作为静态遗存的古戏台，这里更能体现传统宗祠戏台在当代乡村公共生活中的延续与活化。","乡镇":"樟市镇"}},{"type":"Feature","id":4,"geometry":{"type":"Point","coordinates":[112.78055555600008,25.856388889000073]},"properties":{"OBJECTID":4,"文保标题":"太坪村成氏宗祠古戏台","文保英文标题":"Chen's Ancestral Hall Stage in Taiping Village","批次":"湖南省第十批省保","公布时间":"2019.2.28","文保类型":"古建筑","时代":"清代道光八年","省":"湖南","市":"郴州","详细地址":"湖南省郴州市桂阳县太坪村","经度":"东经112°46′50″","纬度":"北纬25°51′23″","是否推荐":"是","图片":"taiping.jpg","Longitude_DD":112.78055555555555,"Latitude_DD":25.85638888888889,"Heritage_Level":"省级","简介":"太平村成氏宗祠古戏台建于清光绪年间，后曾进行维修。戏台规模较大，与两侧厢楼相连，保留木构、石栏、雕刻及戏班题壁等传统元素。项目组实地调研时整体空间较为完整，能够体现桂阳宗祠戏台的建筑形制与地方戏曲活动记忆。","乡镇":"樟市镇"}},{"type":"Feature","id":5,"geometry":{"type":"Point","coordinates":[112.78972222200002,25.867222222000066]},"properties":{"OBJECTID":5,"文保标题":"上坊村成氏宗祠古戏台","文保英文标题":"Chen's Ancestral Hall Stage in Shangfang Village","批次":"桂阳县第五批县保","公布时间":"2017.4.12","文保类型":"古建筑","时代":"清代道光十年","省":"湖南","市":"郴州","详细地址":"湖南省郴州市桂阳县上坊村","经度":"东经112°47′23″","纬度":"北纬25°52′02″","是否推荐":"是","图片":"shangfang.jpg","Longitude_DD":112.78972222222222,"Latitude_DD":25.867222222222221,"Heritage_Level":"县级","简介":"上坊村成氏宗祠古戏台位于成氏宗祠空间内，仍保留传统宗祠与戏台相结合的基本格局。项目组调研时发现周边人流较少，戏台日常使用频率不高，宗祠内部更多呈现祭祀、存放等生活性使用痕迹。该戏台体现了部分乡村古戏台由演出空间逐渐转向宗族与日常空间的变化。","乡镇":"樟市镇"}},{"type":"Feature","id":6,"geometry":{"type":"Point","coordinates":[112.80305555600012,25.887777778000043]},"properties":{"OBJECTID":6,"文保标题":"桐木村露天古戏台","文保英文标题":"Tongmu Village Open-air Ancient Stage","批次":null,"公布时间":null,"文保类型":"古建筑","时代":null,"省":"湖南","市":"郴州","详细地址":"湖南省郴州市桂阳县桐木村","经度":"东经112°48′11″","纬度":"北纬25°53′16″","是否推荐":"是","图片":"tongmu.jpg","Longitude_DD":112.80305555555556,"Latitude_DD":25.887777777777778,"Heritage_Level":"暂无文保等级","简介":"桐木村露天古戏台是一处村落露天戏台。项目组实地考察时，戏台已基本停止使用，现场整体较为荒废，缺乏持续维护，村民对其历史和过去的演出情况也了解不多。作为仍留存在村落环境中的露天戏台，它记录着当地曾经的公共演出空间，也反映出保护与活化需求。","乡镇":"樟市镇"}},{"type":"Feature","id":7,"geometry":{"type":"Point","coordinates":[112.80277777800006,25.88805555600004]},"properties":{"OBJECTID":7,"文保标题":"亭下村史氏宗祠古戏台","文保英文标题":"Shi's Ancestral Hall Stage in Tingxia Village","批次":"桂阳县第五批县保","公布时间":"2017.4.12","文保类型":"古建筑","时代":"清代同治六年","省":"湖南","市":"郴州","详细地址":"湖南省郴州市桂阳县亭下村","经度":"东经112°48′10″","纬度":"北纬25°53′17″","是否推荐":"是","图片":"tingxia2.jpg","Longitude_DD":112.80277777777778,"Latitude_DD":25.888055555555557,"Heritage_Level":"县级","简介":"亭下村史氏宗祠戏台位于宗祠建筑内。项目组调研时未能进入内部详细测绘，但从现场可见建筑经历了较明显的后期改建，部分结构采用钢筋混凝土等现代材料。其现状体现了传统宗祠戏台在长期使用过程中不断修缮、更新的特点，也提示后续数字建档时需区分原有构件与后期改造部分。","乡镇":"洋市镇"}},{"type":"Feature","id":8,"geometry":{"type":"Point","coordinates":[112.79333333300008,25.951388889000043]},"properties":{"OBJECTID":8,"文保标题":"亭下村露天古戏台","文保英文标题":"Tingxia Village Open-air Ancient Stage","批次":"湖南省第十批省保","公布时间":"2019.2.28","文保类型":"古建筑","时代":"清代同治八年","省":"湖南","市":"郴州","详细地址":"湖南省郴州市桂阳县亭下村","经度":"东经112°47′36″","纬度":"北纬25°57′05″","是否推荐":"是","图片":"tingxia1.jpg","Longitude_DD":112.79333333333334,"Latitude_DD":25.951388888888889,"Heritage_Level":"省级","简介":"亭下村露天古戏台建于清同治年间，为较典型的露天式古戏台。戏台采用传统木构与歇山式屋顶，檐部可见花卉、瑞兽等装饰。项目组调研时发现其外观经过修缮和彩绘，整体辨识度较高，是观察桂阳露天戏台建筑形态与乡村演出空间的重要实例。","乡镇":"洋市镇"}},{"type":"Feature","id":9,"geometry":{"type":"Point","coordinates":[112.83861111100009,26.002777778000052]},"properties":{"OBJECTID":9,"文保标题":"车江村邓氏宗祠古戏台","文保英文标题":"Deng's Ancestral Hall Stage in Chejiang Village","批次":"桂阳县第五批县保","公布时间":"2017.4.12","文保类型":"古建筑","时代":"清代乾隆二十五年","省":"湖南","市":"郴州","详细地址":"湖南省郴州市桂阳县车江村","经度":"东经112°50′19″","纬度":"北纬26°00′10″","是否推荐":"是","图片":"chejiang.jpg","Longitude_DD":112.83861111111111,"Latitude_DD":26.002777777777776,"Heritage_Level":"县级","简介":"车江村邓氏宗祠古戏台位于洋市镇车江村。项目组实地访谈中了解到，宗祠及戏台与当地红色文化记忆、村级公共活动相联系，村内也在探索红色文化路线。如今传统戏曲演出已较少，但宗祠仍承担一定的公共活动功能，具有宗族文化、乡村记忆与当代利用叠加的特点。","乡镇":"洋市镇"}},{"type":"Feature","id":10,"geometry":{"type":"Point","coordinates":[112.86666666700012,25.96861111100003]},"properties":{"OBJECTID":10,"文保标题":"庙下村雷氏宗祠古戏台","文保英文标题":"Lei's Ancestral Hall Stage in Miaoxia Village","批次":"桂阳县第五批县保","公布时间":"2017.4.12","文保类型":"古建筑","时代":"明万历年间 - 清康熙年间","省":"湖南","市":"郴州","详细地址":"湖南省郴州市桂阳县庙下村","经度":"东经112°52′00″","纬度":"北纬25°58′07″","是否推荐":"是","图片":"miaoxia.jpg","Longitude_DD":112.86666666666666,"Latitude_DD":25.968611111111109,"Heritage_Level":"县级","简介":"庙下村雷氏宗祠古戏台建于清代，戏台与两侧厢楼、宗祠空间相连，木雕、彩绘、藻井及戏班题壁等保存较有特色。当地至今仍有较强的戏曲与节庆活动传统，调研时可见现代音响等演出设施，村内还有戏班和老年组织参与活动，是桂阳古戏台活态利用较具代表性的点位之一。","乡镇":"洋市镇"}},{"type":"Feature","id":11,"geometry":{"type":"Point","coordinates":[112.68194444400001,25.789166667000075]},"properties":{"OBJECTID":11,"文保标题":"寨下村露天古戏台","文保英文标题":"Zaixia Village Open-air Ancient Stage","批次":null,"公布时间":null,"文保类型":"古建筑","时代":null,"省":"湖南","市":"郴州","详细地址":"湖南省郴州市桂阳县寨下村","经度":"东经112°40′55″","纬度":"北纬25°47′21″","是否推荐":"是","图片":"zhaixia.jpg","Longitude_DD":112.68194444444445,"Latitude_DD":25.789166666666667,"Heritage_Level":"暂无文保等级","简介":"寨下村露天古戏台位于村落环境中，项目组调研时现场杂草较多、进入条件较差，戏台保存状况不佳，已经基本退出日常公共活动。尽管目前利用程度较低，但其遗存仍能反映过去村落露天演出空间的存在。后续若开展保护，可优先做好周边环境清理、现状记录与安全评估。","乡镇":"樟市镇"}},{"type":"Feature","id":12,"geometry":{"type":"Point","coordinates":[112.66055555600008,25.798333333000073]},"properties":{"OBJECTID":12,"文保标题":"社塘村刘氏宗祠古戏台","文保英文标题":"Liu's Ancestral Hall Stage in Shetang Village","批次":"桂阳县第五批县保","公布时间":"2017.4.12","文保类型":"古建筑","时代":"清代嘉庆十八年","省":"湖南","市":"郴州","详细地址":"湖南省郴州市桂阳县社塘村","经度":"东经112°39′38″","纬度":"北纬25°47′54″","是否推荐":"是","图片":"shetang.jpg","Longitude_DD":112.66055555555556,"Latitude_DD":25.798333333333336,"Heritage_Level":"县级","简介":"社塘村刘氏宗祠古戏台在项目组调研时已较少使用，周边杂草较多，整体保存和进入条件均不理想。与之相邻的村级文化活动设施较新，形成了传统戏台与现代公共文化空间并置的鲜明对比。该点位适合用于观察乡村公共文化功能由古戏台向新型活动场所转移的过程。","乡镇":"仁义镇"}},{"type":"Feature","id":13,"geometry":{"type":"Point","coordinates":[112.6355555560001,25.802500000000066]},"properties":{"OBJECTID":13,"文保标题":"大湖村侯氏宗祠古戏台","文保英文标题":"Hou's Ancestral Hall Stage in Dahu Village","批次":"桂阳县第五批县保","公布时间":"2017.4.12","文保类型":"古建筑","时代":"清代道光八年","省":"湖南","市":"郴州","详细地址":"湖南省郴州市桂阳县大湖村","经度":"东经112°38′08″","纬度":"北纬25°48′09″","是否推荐":"是","图片":"dahu.jpg","Longitude_DD":112.63555555555556,"Latitude_DD":25.802500000000002,"Heritage_Level":"县级","简介":"大湖村侯氏宗祠古戏台位于桂阳县仁义镇大湖村六角塘水库西北侧，始建于清道光年间（1821—1850），为砖木结构宗祠戏台。建筑采用三进式布局，戏台为单檐歇山顶，木柱、雕花石础、藻井和彩画等传统构件较有特色，是研究湘南宗祠建筑与地方戏曲文化的重要实物遗存。","乡镇":"仁义镇"}},{"type":"Feature","id":14,"geometry":{"type":"Point","coordinates":[112.59777777800002,25.853611111000077]},"properties":{"OBJECTID":14,"文保标题":"斗余村刘氏宗祠古戏台","文保英文标题":"Liu's Ancestral Hall Stage in Douyu Village","批次":"桂阳县第五批县保","公布时间":"2017.4.12","文保类型":"古建筑","时代":"清代道光十二年","省":"湖南","市":"郴州","详细地址":"湖南省郴州市桂阳县斗余村","经度":"东经112°35′52″","纬度":"北纬25°51′13″","是否推荐":"是","图片":"douyu.jpg","Longitude_DD":112.59777777777778,"Latitude_DD":25.853611111111114,"Heritage_Level":"县级","简介":"斗余村刘氏宗祠古戏台目前仍在使用，并经过较明显的修缮和彩绘。调研中了解到，村民会对宗祠及戏台进行定期维护，屏风后部还设置了较现代的村民活动空间。传统建筑元素与当代乡村公共文化功能在这里叠加存在，体现了古戏台通过持续维修融入村民生活的一种方式。","乡镇":"敖泉镇"}},{"type":"Feature","id":15,"geometry":{"type":"Point","coordinates":[112.60305555600007,25.925555556000063]},"properties":{"OBJECTID":15,"文保标题":"浪石雷氏宗祠古戏台","文保英文标题":"Lei's Ancestral Hall Stage in Langshi","批次":"第八批全国重点文保","公布时间":"2019.10.7","文保类型":"古建筑","时代":"清代光绪六年","省":"湖南","市":"郴州","详细地址":"湖南省郴州市桂阳县浪石村","经度":"东经112°36′11″","纬度":"北纬25°55′32″","是否推荐":"是","图片":"langshi.jpg","Longitude_DD":112.60305555555556,"Latitude_DD":25.925555555555558,"Heritage_Level":"国家级","简介":"浪石雷氏宗祠古戏台仍保留宗祠戏台的传统空间特征，现场可见木质构件、匾额及生活使用痕迹。项目组调研时感受到当地村民对宗祠具有较强的宗族情感，建筑虽有修缮和局部更新，但仍维持一定古朴感。该戏台兼具宗族祭祀、公共聚会与地方文化记忆等多重意义。","乡镇":"敖泉镇"}},{"type":"Feature","id":16,"geometry":{"type":"Point","coordinates":[112.55583333300001,25.957222222000041]},"properties":{"OBJECTID":16,"文保标题":"下桥村唐氏宗祠古戏台","文保英文标题":"Tangshi Ancestral Hall Stage in Xiaqiao Village","批次":"郴州市第四批市保","公布时间":"2018.8.10","文保类型":"古建筑","时代":"清代","省":"湖南","市":"郴州","详细地址":"湖南省郴州市桂阳县下桥村","经度":"东经112°33′21″","纬度":"北纬25°57′26″","是否推荐":"是","图片":"xiaqiao.jpg","Longitude_DD":112.55583333333333,"Latitude_DD":25.957222222222221,"Heritage_Level":"市级","简介":"下桥村唐氏宗祠古戏台建于清乾隆年间，后经多次重修。其上部采用三层重檐八角亭阁式结构，木雕、彩绘和石雕装饰丰富，建筑造型在桂阳古戏台中较为少见。项目组调研时主体仍较完整，是展示传统戏台结构技艺与宗祠文化空间的重要点位。","乡镇":"敖泉镇"}},{"type":"Feature","id":17,"geometry":{"type":"Point","coordinates":[112.53916666700002,25.98500000000007]},"properties":{"OBJECTID":17,"文保标题":"蒹葭村杨氏宗祠古戏台","文保英文标题":"Yang's Ancestral Hall Stage in Jianjia Village","批次":null,"公布时间":null,"文保类型":"古建筑","时代":"清代","省":"湖南","市":"郴州","详细地址":"湖南省郴州市桂阳县蒹葭村","经度":"东经112°32′21″","纬度":"北纬25°59′06″","是否推荐":"是","图片":"jianjia.jpg","Longitude_DD":112.53916666666666,"Latitude_DD":25.984999999999999,"Heritage_Level":"暂无文保等级","简介":"蒹葭村杨氏宗祠古戏台经过较大幅度的修缮，项目组调研时外观色彩鲜明，部分结构已采用钢筋混凝土等现代材料。建筑仍承担宗祠及村民公共活动功能，但传统构件与现代改造并存。该点位适合在数字档案中记录古戏台修缮方式变化及其对历史风貌的影响。","乡镇":"敖泉镇"}},{"type":"Feature","id":18,"geometry":{"type":"Point","coordinates":[112.68055555600006,25.751388889000054]},"properties":{"OBJECTID":18,"文保标题":"昭金水头村周氏宗祠古戏台","文保英文标题":"Zhou's Ancestral Hall Stage in Shuitou Village, Zhaojin","批次":null,"公布时间":null,"文保类型":"古建筑","时代":"清代","省":"湖南","市":"郴州","详细地址":"湖南省郴州市桂阳县昭金水头村","经度":"东经112°40′50″","纬度":"北纬25°45′05″","是否推荐":"是","图片":"zhaojinshuitou.jpg","Longitude_DD":112.68055555555556,"Latitude_DD":25.75138888888889,"Heritage_Level":"暂无文保等级","简介":"昭金水头村周氏宗祠古戏台位于桂阳县龙潭街道昭金村下水头组，公开文保资料将昭金周氏宗祠年代记为清代。项目组访谈了解到，宗祠过去承载较多村民活动，近年来活动频率有所下降。古戏台仍是宗族聚会和地方文化记忆的重要空间。","乡镇":"龙潭街道"}},{"type":"Feature","id":19,"geometry":{"type":"Point","coordinates":[112.67527777800001,25.752222222000057]},"properties":{"OBJECTID":19,"文保标题":"昭金村魏家宗祠古戏台","文保英文标题":"Wei Family Ancestral Hall Stage in Zhaojin Village","批次":"湖南省第十批省保","公布时间":"2019.2.28","文保类型":"古建筑","时代":"清代","省":"湖南","市":"郴州","详细地址":"湖南省郴州市桂阳县昭金村","经度":"东经112°40′31″","纬度":"北纬25°45′08″","是否推荐":"是","图片":"zhaojin.jpg","Longitude_DD":112.67527777777778,"Latitude_DD":25.752222222222223,"Heritage_Level":"省级","简介":"昭金村魏家宗祠古戏台所在的魏氏公祠建于清同治二年（1863）。戏台木构件保留龙凤花鸟等传统雕饰，内台屏板上仍存清光绪时期至民国年间昆曲、花灯戏班演出题壁。近年来经过修缮并加强防火、防虫等保护，体现了古建筑保护与当代使用的结合。","乡镇":"龙潭街道"}},{"type":"Feature","id":20,"geometry":{"type":"Point","coordinates":[112.5763888890001,25.764722222000046]},"properties":{"OBJECTID":20,"文保标题":"鲤鱼村露天古戏台","文保英文标题":"Liyu Village Open-air Ancient Stage","批次":null,"公布时间":null,"文保类型":"古建筑","时代":"清代","省":"湖南","市":"郴州","详细地址":"湖南省郴州市桂阳县鲤鱼村","经度":"东经112°34′35″","纬度":"北纬25°45′53″","是否推荐":"是","图片":"liyu.jpg","Longitude_DD":112.57638888888889,"Latitude_DD":25.764722222222222,"Heritage_Level":"暂无文保等级","简介":"鲤鱼村露天古戏台位置较为隐蔽，项目组实地寻找和进入均较困难。调研时戏台整体较为破败，周边可见半包围式墙体，现已基本不承担日常演出或公共活动。它是本次调查中保存压力较明显的露天戏台之一，后续可重点进行现状测绘、环境清理和风险记录。","乡镇":"浩塘镇"}},{"type":"Feature","id":21,"geometry":{"type":"Point","coordinates":[112.52750000000003,25.871666667000056]},"properties":{"OBJECTID":21,"文保标题":"槐江村罗氏宗祠古戏台","文保英文标题":"Luo's Ancestral Hall Stage in Huaijiang Village","批次":null,"公布时间":null,"文保类型":"古建筑","时代":"清代","省":"湖南","市":"郴州","详细地址":"湖南省郴州市桂阳县槐江村","经度":"东经112°31′39″","纬度":"北纬25°52′18″","是否推荐":"是","图片":"huaijiang.jpg","Longitude_DD":112.5275,"Latitude_DD":25.871666666666666,"Heritage_Level":"暂无文保等级","简介":"槐江村罗氏宗祠古戏台经过修缮后整体较新，仍与村民日常生活保持联系。调研中村干部和老年村民提到，村里婚庆、聚会等活动会使用宗祠空间，也希望通过对外宣传提升古戏台的关注度。该戏台体现了传统宗祠空间在当代继续承担村民公共交往功能的活态特征。","乡镇":"舂陵江镇"}},{"type":"Feature","id":22,"geometry":{"type":"Point","coordinates":[112.47138888900008,25.87583333300006]},"properties":{"OBJECTID":22,"文保标题":"愁下村侯氏宗祠古戏台","文保英文标题":"Hou's Ancestral Hall Stage in Chouxia Village","批次":null,"公布时间":null,"文保类型":"古建筑","时代":"清代","省":"湖南","市":"郴州","详细地址":"湖南省郴州市桂阳县愁下村","经度":"东经112°28′17″","纬度":"北纬25°52′33″","是否推荐":"是","图片":"chouxia.jpg","Longitude_DD":112.4713888888889,"Latitude_DD":25.875833333333333,"Heritage_Level":"暂无文保等级","简介":"愁下村侯氏宗祠古戏台建于清嘉庆年间，砖石台基与木构戏台结合，雕刻题材包括孔雀、花鸟、瑞兽等，后台还留有昆曲、祁剧、花灯等演出题记。项目组调研时相关活动已不算频繁，建筑仍保存较多历史与戏曲文化信息。","乡镇":"舂陵江镇"}},{"type":"Feature","id":23,"geometry":{"type":"Point","coordinates":[112.48416666700007,25.919444444000078]},"properties":{"OBJECTID":23,"文保标题":"上龙泉罗氏宗祠古戏台","文保英文标题":"Luo's Ancestral Hall Stage in Shanglongquan","批次":null,"公布时间":null,"文保类型":"古建筑","时代":"清代","省":"湖南","市":"郴州","详细地址":"湖南省郴州市桂阳县上龙泉村","经度":"东经112°29′03″","纬度":"北纬25°55′10″","是否推荐":"是","图片":"shanglongquan.jpg","Longitude_DD":112.48416666666667,"Latitude_DD":25.919444444444444,"Heritage_Level":"暂无文保等级","简介":"上龙泉胡氏宗祠古戏台据现存《新建台碑》记载，建于清雍正十一年（1733），清道光四年（1824）曾重修。戏台采用传统木构和单檐歇山顶，石栏、彩绘、雕刻及碑刻等遗存较丰富。项目组调研时发现部分木构已有老化，村内维护资金较紧张，具有较高的建筑与地方文献价值。","乡镇":"流峰镇"}},{"type":"Feature","id":24,"geometry":{"type":"Point","coordinates":[112.50750000000005,25.964722222000034]},"properties":{"OBJECTID":24,"文保标题":"沧海宁氏宗祠古戏台","文保英文标题":"Ning's Ancestral Hall Stage in Canghai","批次":"湖南省第十批省保","公布时间":"2019.2.28","文保类型":"古建筑","时代":"清代","省":"湖南","市":"郴州","详细地址":"湖南省郴州市桂阳县沧海村","经度":"东经112°30′27″","纬度":"北纬25°57′53″","是否推荐":"是","图片":"canghai.jpg","Longitude_DD":112.50749999999999,"Latitude_DD":25.964722222222221,"Heritage_Level":"省级","简介":"沧海宁氏宗祠古戏台建于清代，采用青砖台基与木构歇山顶，石狮、双龙系珠、八仙等装饰具有传统民间艺术特色。调研中了解到，村民曾自筹资金进行维修，对防火、防虫和日常维护较为重视，戏台整体保存较好，至今仍可承载婚庆及部分演出活动。","乡镇":"流峰镇"}},{"type":"Feature","id":25,"geometry":{"type":"Point","coordinates":[112.54111111100008,25.992500000000064]},"properties":{"OBJECTID":25,"文保标题":"大窝李氏宗祠古戏台","文保英文标题":"Li's Ancestral Hall Stage in Dwo","批次":null,"公布时间":null,"文保类型":"古建筑","时代":"清代","省":"湖南","市":"郴州","详细地址":"湖南省郴州市桂阳县大窝村","经度":"东经112°32′28″","纬度":"北纬25°59′33″","是否推荐":"是","图片":"dawo.jpg","Longitude_DD":112.54111111111111,"Latitude_DD":25.9925,"Heritage_Level":"暂无文保等级","简介":"大窝村李氏宗祠古戏台目前仍是村民公共活动的重要场所。调研中了解到，宗祠会用于奖学金发放和表彰等活动，体现当地重视教育和村民共同维护的特点。公开资料还记录了大窝李氏宗祠保存有清代戏班题壁，使其不仅具有现实公共功能，也保留了桂阳戏曲活动的历史痕迹。","乡镇":"欧阳海镇"}},{"type":"Feature","id":26,"geometry":{"type":"Point","coordinates":[112.48444444400002,26.050000000000068]},"properties":{"OBJECTID":26,"文保标题":"夏塘傅氏宗祠古戏台","文保英文标题":"Fu's Ancestral Hall Stage in Xiatang","批次":"桂阳县第五批县保","公布时间":"2017.4.12","文保类型":"古建筑","时代":"清代","省":"湖南","市":"郴州","详细地址":"湖南省郴州市桂阳县夏塘村","经度":"东经112°29′04″","纬度":"北纬26°03′00″","是否推荐":"是","图片":"xiatang.jpg","Longitude_DD":112.48444444444445,"Latitude_DD":26.050000000000001,"Heritage_Level":"县级","简介":"夏塘村傅氏宗祠古戏台仍保留较明显的宗祠戏台格局，现场可见壁画、木地板、舞龙道具等文化元素。项目组调研时正值节庆活动准备阶段，宗祠内仍有村民布置场地和使用痕迹。虽然部分附属公共设施维护状况一般，但戏台本体仍具有一定活态利用基础。","乡镇":"莲塘镇"}},{"type":"Feature","id":27,"geometry":{"type":"Point","coordinates":[112.48194444400008,26.054722222000066]},"properties":{"OBJECTID":27,"文保标题":"锦湖傅氏宗祠古戏台","文保英文标题":"Fu's Ancestral Hall Stage in Jinhu","批次":null,"公布时间":null,"文保类型":"古建筑","时代":"清代","省":"湖南","市":"郴州","详细地址":"湖南省郴州市桂阳县锦湖村","经度":"东经112°28′55″","纬度":"北纬26°03′17″","是否推荐":"是","图片":"jinhu.jpg","Longitude_DD":112.48194444444445,"Latitude_DD":26.054722222222225,"Heritage_Level":"暂无文保等级","简介":"锦湖村傅氏宗祠古戏台建于清乾隆年间，戏台以料石台基、木构歇山顶和两侧厢楼组成，封檐板、墙面及石构件上保留八仙、双龙戏珠等雕刻和彩绘。调研中了解到，近年来宗祠活动仍较频繁，虽传统唱戏减少，但古戏台仍持续参与村民公共文化生活。","乡镇":"莲塘镇"}},{"type":"Feature","id":28,"geometry":{"type":"Point","coordinates":[112.46944444400003,26.069166667000047]},"properties":{"OBJECTID":28,"文保标题":"莲塘彭氏宗祠古戏台","文保英文标题":"Peng's Ancestral Hall Stage in Liantang","批次":null,"公布时间":null,"文保类型":"古建筑","时代":"清代","省":"湖南","市":"郴州","详细地址":"湖南省郴州市桂阳县莲塘村","经度":"东经112°28′10″","纬度":"北纬26°04′09″","是否推荐":"是","图片":"liantang.jpg","Longitude_DD":112.46944444444445,"Latitude_DD":26.069166666666668,"Heritage_Level":"暂无文保等级","简介":"莲塘村彭氏宗祠古戏台至今仍与村民祭祖、聚会和宴席等活动联系紧密。项目组调研时，宗祠内有村民集中准备食材，现场较为热闹，并可见八卦形顶部等传统空间元素与现代桌椅、混凝土地面共存。该戏台较好体现了宗祠空间从传统演戏场所向综合村民活动空间的延续。","乡镇":"莲塘镇"}},{"type":"Feature","id":29,"geometry":{"type":"Point","coordinates":[112.49250000000006,26.098055556000077]},"properties":{"OBJECTID":29,"文保标题":"大湾夏氏宗祠古戏台","文保英文标题":"Xia's Ancestral Hall Stage in Dawan","批次":"郴州市第四批市保","公布时间":"2018.8.10","文保类型":"古建筑","时代":"清代","省":"湖南","市":"郴州","详细地址":"湖南省郴州市桂阳县大湾村","经度":"东经112°29′33″","纬度":"北纬26°05′53″","是否推荐":"是","图片":"dawan.jpg","Longitude_DD":112.49250000000001,"Latitude_DD":26.098055555555554,"Heritage_Level":"市级","简介":"大湾村夏氏宗祠古戏台建于清乾隆年间，戏台石柱、封檐板及屋脊等部位保留盘龙、龙凤等传统雕刻装饰，是大湾古村建筑文化的重要组成部分。项目组调研时正值村民大会等公共活动，现场配有灯光、扩声等现代设施，显示古戏台仍在承担村民集会与文化活动功能。","乡镇":"莲塘镇"}},{"type":"Feature","id":30,"geometry":{"type":"Point","coordinates":[112.50611111100011,26.131111111000052]},"properties":{"OBJECTID":30,"文保标题":"东流彭氏宗祠古戏台","文保英文标题":"Peng's Ancestral Hall Stage in Dongliu","批次":null,"公布时间":null,"文保类型":"古建筑","时代":"清代","省":"湖南","市":"郴州","详细地址":"湖南省郴州市桂阳县东流村","经度":"东经112°30′22″","纬度":"北纬26°07′52″","是否推荐":"是","图片":"dongliu.jpg","Longitude_DD":112.50611111111111,"Latitude_DD":26.13111111111111,"Heritage_Level":"暂无文保等级","简介":"东流村彭氏宗祠古戏台保存有较有特色的壁画和外墙刻字砖，项目组访谈中村干部也将这些细节视为戏台的重要文化特征。由于村庄距离县城较远，宣传推广和维护资金存在一定困难，但村民对送戏下乡等文化活动仍较重视，古戏台继续承担乡村公共文化空间的作用。","乡镇":"莲塘镇"}},{"type":"Feature","id":31,"geometry":{"type":"Point","coordinates":[112.4575000000001,26.017222222000044]},"properties":{"OBJECTID":31,"文保标题":"竹溪社背村颜氏宗祠古戏台","文保英文标题":"Yan's Ancestral Hall Stage in Shebei Village, Zhuxi","批次":null,"公布时间":null,"文保类型":"古建筑","时代":"清代","省":"湖南","市":"郴州","详细地址":"湖南省郴州市桂阳县竹溪社背村","经度":"东经112°27′27″","纬度":"北纬26°01′02″","是否推荐":"是","图片":"zhuxishebei.jpg","Longitude_DD":112.4575,"Latitude_DD":26.01722222222222,"Heritage_Level":"暂无文保等级","简介":"竹溪社背村颜氏宗祠古戏台经过村民集资和政府补助等方式进行修缮，目前主要用于婚丧嫁娶、聚会等村民活动。项目组调研时建筑体量较大，修缮中使用了较多现代材料，部分原有牌匾也已更换。该点位反映了传统宗祠戏台在维持使用功能的同时，如何处理历史风貌保存与现代维修之间的关系。","乡镇":"流峰镇"}},{"type":"Feature","id":32,"geometry":{"type":"Point","coordinates":[112.4552777780001,26.024722222000037]},"properties":{"OBJECTID":32,"文保标题":"竹溪岭背村颜氏宗祠古戏台","文保英文标题":"Yan's Ancestral Hall Stage in Lingbei Village, Zhuxi","批次":null,"公布时间":null,"文保类型":"古建筑","时代":"清代","省":"湖南","市":"郴州","详细地址":"湖南省郴州市桂阳县竹溪岭背村","经度":"东经112°27′19″","纬度":"北纬26°01′29″","是否推荐":"是","图片":"zhuxilingbei.jpg","Longitude_DD":112.45527777777778,"Latitude_DD":26.02472222222222,"Heritage_Level":"暂无文保等级","简介":"竹溪岭背村颜氏宗祠古戏台建于清道光年间，前后台以木板屏风相隔，石雕盘龙柱及“二十四孝”题材封檐板具有较强装饰特色。项目组调研时主体木构和部分壁画、题字仍较完整，宗祠也继续承担村民活动功能，是桂阳古戏台建筑艺术与宗族文化结合的代表性遗存。","乡镇":"流峰镇"}},{"type":"Feature","id":33,"geometry":{"type":"Point","coordinates":[112.4575000000001,26.015833333000046]},"properties":{"OBJECTID":33,"文保标题":"竹溪老屋村颜氏宗祠古戏台","文保英文标题":"Yan's Ancestral Hall Stage in Laowu Village, Zhuxi","批次":null,"公布时间":null,"文保类型":"古建筑","时代":"清代","省":"湖南","市":"郴州","详细地址":"湖南省郴州市桂阳县竹溪老屋村","经度":"东经112°27′27″","纬度":"北纬26°00′57″","是否推荐":"是","图片":"zhuxilaowu.jpg","Longitude_DD":112.4575,"Latitude_DD":26.015833333333333,"Heritage_Level":"暂无文保等级","简介":"竹溪老屋村颜氏宗祠古戏台建于清嘉庆年间，戏台与两侧厢楼相连，木雕、彩绘及后台戏班题记等体现传统宗祠戏台特色。较早项目资料曾记录屋面漏雨和木构老化，本次调研观察主体整体仍较完整，但传统戏曲活动已很少，当前更多作为宗族及村民公共空间保存。","乡镇":"流峰镇"}},{"type":"Feature","id":34,"geometry":{"type":"Point","coordinates":[112.4430555560001,26.025833333000037]},"properties":{"OBJECTID":34,"文保标题":"泗州村陈氏宗祠古戏台","文保英文标题":"Chen's Ancestral Hall Stage in Sizhou Village","批次":null,"公布时间":null,"文保类型":"古建筑","时代":"清代","省":"湖南","市":"郴州","详细地址":"湖南省郴州市桂阳县泗州村","经度":"东经112°26′35″","纬度":"北纬26°01′33″","是否推荐":"是","图片":"sizhou.jpg","Longitude_DD":112.44305555555556,"Latitude_DD":26.025833333333331,"Heritage_Level":"暂无文保等级","简介":"泗州村陈氏宗祠古戏台建于清嘉庆年间，以砖石台基和木构戏台组成，木构件保留传统工艺装饰。项目组调研时建筑整体年代感较强，局部木地板已有破损，宗祠内陈列有家族人物资料和桌椅等，仍可见婚庆、聚会等现实使用痕迹。","乡镇":"流峰镇"}},{"type":"Feature","id":35,"geometry":{"type":"Point","coordinates":[112.48166666700001,26.032500000000027]},"properties":{"OBJECTID":35,"文保标题":"下阳村欧阳宗祠古戏台","文保英文标题":"Ouyang Ancestral Hall Stage in Xiayang Village","批次":"第八批全国重点文保","公布时间":"2019.10.7","文保类型":"古建筑","时代":"清代","省":"湖南","市":"郴州","详细地址":"湖南省郴州市桂阳县下阳村","经度":"东经112°28′54″","纬度":"北纬26°01′57″","是否推荐":"是","图片":"xiayang.jpg","Longitude_DD":112.48166666666667,"Latitude_DD":26.032499999999999,"Heritage_Level":"国家级","简介":"下阳村欧阳宗祠古戏台为清代宗祠戏台，建筑内木雕、石雕、彩绘及传统戏台空间较为丰富。项目组调研时音响、灯光等演出设备齐全，当地民间剧团仍较活跃，春节等节庆活动继续在古戏台举行；剧团成员以中老年人为主，也面临年轻力量不足的传承压力。","乡镇":"流峰镇"}},{"type":"Feature","id":36,"geometry":{"type":"Point","coordinates":[112.48250000000007,26.038055556000074]},"properties":{"OBJECTID":36,"文保标题":"上阳村欧阳宗祠古戏台","文保英文标题":"Ouyang Ancestral Hall Stage in Shangyang Village","批次":null,"公布时间":null,"文保类型":"古建筑","时代":"清代","省":"湖南","市":"郴州","详细地址":"湖南省郴州市桂阳县上阳村","经度":"东经112°28′57″","纬度":"北纬26°02′17″","是否推荐":"是","图片":"shangyang.jpg","Longitude_DD":112.4825,"Latitude_DD":26.038055555555559,"Heritage_Level":"暂无文保等级","简介":"上阳村欧阳宗祠古戏台位于上阳村欧阳氏宗祠内，戏台空间保留“出将”“入相”等传统戏台元素，整体体现中国传统建筑与地方戏曲文化特色。项目资料显示其保存状况较好，并于2012年列为郴州市市级文物保护单位。作为宗祠公共文化空间的重要组成部分，该戏台具有较好的建筑保存基础和地方文化展示价值。","乡镇":"流峰镇"}},{"type":"Feature","id":37,"geometry":{"type":"Point","coordinates":[112.45444444400005,25.995555556000056]},"properties":{"OBJECTID":37,"文保标题":"现田村尹氏宗祠古戏台","文保英文标题":"Yin's Ancestral Hall Stage in Xiantian Village","批次":null,"公布时间":null,"文保类型":"古建筑","时代":"清代","省":"湖南","市":"郴州","详细地址":"湖南省郴州市桂阳县现田村","经度":"东经112°27′16″","纬度":"北纬25°59′44″","是否推荐":"是","图片":"xiantian.jpg","Longitude_DD":112.45444444444445,"Latitude_DD":25.995555555555555,"Heritage_Level":"暂无文保等级","简介":"现田村尹氏宗祠古戏台保留较多木雕、碑刻和墙体彩绘，碑刻中可见捐资与修缮等地方记忆。项目组调研时了解到，近两年戏台使用频率有所下降，主要在春节、重阳节以及寒暑假村级活动中使用。周边田园环境和传统村落风貌较好，具有进一步结合乡村文化展示的潜力。","乡镇":"流峰镇"}},{"type":"Feature","id":38,"geometry":{"type":"Point","coordinates":[112.46750000000009,26.004722222000055]},"properties":{"OBJECTID":38,"文保标题":"梅花村尹氏宗祠古戏台","文保英文标题":"Yin's Ancestral Hall Stage in Meihua Village","批次":null,"公布时间":null,"文保类型":"古建筑","时代":"清代","省":"湖南","市":"郴州","详细地址":"湖南省郴州市桂阳县梅花村","经度":"东经112°28′03″","纬度":"北纬26°00′17″","是否推荐":"是","图片":"meihua.jpg","Longitude_DD":112.4675,"Latitude_DD":26.004722222222224,"Heritage_Level":"暂无文保等级","简介":"梅花村尹氏宗祠古戏台经过修缮后外观较新，台下及部分结构可见现代材料。项目组调研时，宗祠仍用于升学宴、酒席等村民集体活动，现场留有庆祝横幅和照明设施。虽然传统戏曲活动已较少，但宗祠戏台仍作为村民聚会空间持续使用，体现出功能上的延续。","乡镇":"流峰镇"}},{"type":"Feature","id":39,"geometry":{"type":"Point","coordinates":[112.46722222200003,26.005000000000052]},"properties":{"OBJECTID":39,"文保标题":"双染村龙氏宗祠古戏台","文保英文标题":"Long's Ancestral Hall Stage in Shuangran Village","批次":null,"公布时间":null,"文保类型":"古建筑","时代":"清代","省":"湖南","市":"郴州","详细地址":"湖南省郴州市桂阳县双梁村","经度":"东经112°28′02″","纬度":"北纬26°00′18″","是否推荐":"是","图片":"shuangliang.jpg","Longitude_DD":112.46722222222222,"Latitude_DD":26.004999999999999,"Heritage_Level":"暂无文保等级","简介":"双染村龙氏宗祠古戏台仍保留宗祠戏台的基本空间，但部分传统构件已有损坏或缺失。项目组调研时发现，两侧厢房较短，原有石雕柱等装饰存在损毁和后期水泥修补，墙面有长期烟熏痕迹，显示这里过去可能较频繁用于宴席和集体活动。现状具有较明显的保护修缮需求。","乡镇":"流峰镇"}},{"type":"Feature","id":40,"geometry":{"type":"Point","coordinates":[112.42805555600012,26.001666667000052]},"properties":{"OBJECTID":40,"文保标题":"泉金村张氏宗祠古戏台","文保英文标题":"Zhang's Ancestral Hall Stage in Quanjin Village","批次":"湖南省第十批省保","公布时间":"2019.2.28","文保类型":"古建筑","时代":"清代","省":"湖南","市":"郴州","详细地址":"湖南省郴州市桂阳县泉金村","经度":"东经112°25′41″","纬度":"北纬26°00′06″","是否推荐":"是","图片":"quanjin.jpg","Longitude_DD":112.42805555555556,"Latitude_DD":26.001666666666665,"Heritage_Level":"省级","简介":"泉金村张氏宗祠古戏台是桂阳昆曲古戏台的重要组成点。项目组调研时发现，建筑整体年代感较强，两侧厢房已有一定损坏，墙面可见烟熏痕迹及地方记事，屏风后保留较多戏班题壁。虽然当前使用频率不高，但这些历史痕迹对研究地方戏曲演出和宗祠生活具有较高记录价值。","乡镇":"流峰镇"}},{"type":"Feature","id":41,"geometry":{"type":"Point","coordinates":[112.42777777800006,25.959444444000042]},"properties":{"OBJECTID":41,"文保标题":"坛边村欧阳宗祠古戏台","文保英文标题":"Ouyang Ancestral Hall Stage in Tanbian Village","批次":null,"公布时间":null,"文保类型":"古建筑","时代":"清代","省":"湖南","市":"郴州","详细地址":"湖南省郴州市桂阳县坛边村","经度":"东经112°25′40″","纬度":"北纬25°57′34″","是否推荐":"是","图片":"tanbian.jpg","Longitude_DD":112.42777777777778,"Latitude_DD":25.959444444444443,"Heritage_Level":"暂无文保等级","简介":"坛边村欧阳宗祠古戏台位于流峰镇坛边村，是当地欧阳氏宗族公共空间的重要组成部分。项目组调研时建筑整体观感较好，村民和基层干部对古戏台保护与宣传较为支持，但传统唱戏活动已明显减少。现场还可见与宗族历史、村落记忆相关的建筑和口述信息，具有进一步整理展示的价值。","乡镇":"流峰镇"}},{"type":"Feature","id":42,"geometry":{"type":"Point","coordinates":[112.43666666700005,25.974722222000025]},"properties":{"OBJECTID":42,"文保标题":"泮塘村李氏宗祠古戏台","文保英文标题":"Li's Ancestral Hall Stage in Pantang Village","批次":null,"公布时间":null,"文保类型":"古建筑","时代":"清代","省":"湖南","市":"郴州","详细地址":"湖南省郴州市桂阳县泮塘村","经度":"东经112°26′12″","纬度":"北纬25°58′29″","是否推荐":"是","图片":"pantang.jpg","Longitude_DD":112.43666666666667,"Latitude_DD":25.974722222222219,"Heritage_Level":"暂无文保等级","简介":"泮塘村李氏宗祠古戏台建于清代，戏台设主台与左右副台，石栏雕有鸟兽花草，木柱下部配有云龙雕柱，后台墙面还保存光绪年间戏班题写的剧目和演出墨迹。调研时可见后期重新刷漆及现代宣传元素，近年活动有所减少，但历史戏曲痕迹仍具有较高记录价值。","乡镇":"流峰镇"}}]}