{"type":"FeatureCollection","features":[{"type":"Feature","id":1,"geometry":{"type":"Polygon","coordinates":[[[112.68078300000002,26.126847000000055],[112.67983700000002,26.130614000000037],[112.67101200000002,26.13100600000007],[112.66985700000009,26.114451000000031],[112.65153000000009,26.10383900000005],[112.63635000000011,26.108778000000029],[112.63883900000008,26.115218000000027],[112.65240000000006,26.117705000000058],[112.66662000000008,26.13384300000007],[112.64766100000008,26.133707000000072],[112.62672000000009,26.143740000000037],[112.62403600000005,26.157799000000068],[112.62688900000001,26.17710500000004],[112.61875300000008,26.196587000000079],[112.60824300000002,26.196519000000023],[112.59949000000006,26.208074000000067],[112.59799900000007,26.221467000000075],[112.58370700000012,26.224823000000072],[112.574791,26.222755000000063],[112.5659270000001,26.199279000000047],[112.57314000000008,26.184250000000077],[112.5746180000001,26.157598000000064],[112.56704100000002,26.160048000000074],[112.56772100000001,26.164315000000045],[112.54621500000007,26.150191000000063],[112.52506900000003,26.151793000000055],[112.51945200000011,26.139355000000023],[112.50719800000002,26.138353000000052],[112.5023460000001,26.145008000000075],[112.5028440000001,26.165282000000047],[112.48191500000007,26.15298400000006],[112.47747300000003,26.15652700000004],[112.47797600000001,26.175861000000054],[112.47479500000009,26.178525000000036],[112.44623300000001,26.183986000000061],[112.43845500000009,26.180166000000042],[112.42340000000002,26.193677000000037],[112.39142000000004,26.187066000000073],[112.38233900000012,26.207814000000042],[112.37548300000003,26.212515000000053],[112.37130200000001,26.196239000000048],[112.35544000000004,26.181723000000034],[112.35177300000009,26.164238000000068],[112.34436900000003,26.170366000000058],[112.32672500000001,26.170183000000065],[112.31853300000012,26.162007000000074],[112.30865900000003,26.166610000000048],[112.30199700000003,26.158591000000058],[112.30510100000004,26.149428000000057],[112.2996270000001,26.136475000000075],[112.28653400000007,26.135371000000077],[112.28642000000002,26.146487000000036],[112.27892400000007,26.148050000000069],[112.25128900000004,26.128745000000038],[112.22765100000004,26.123235000000022],[112.22424300000011,26.114797000000067],[112.22917000000007,26.097358000000042],[112.24378900000011,26.094890000000078],[112.24804800000004,26.07844300000005],[112.25459400000011,26.08377100000007],[112.25183900000002,26.088791000000072],[112.24669700000004,26.088411000000065],[112.25185400000009,26.094224000000054],[112.25830100000007,26.096311000000071],[112.26164000000006,26.090196000000049],[112.27273800000012,26.091432000000054],[112.27878500000008,26.105763000000024],[112.28735000000006,26.102790000000027],[112.28647200000012,26.097772000000077],[112.29188500000009,26.094686000000024],[112.30804200000011,26.102050000000077],[112.33257400000002,26.076322000000062],[112.3246180000001,26.038376000000028],[112.30884000000003,26.023220000000038],[112.30647600000009,26.026411000000053],[112.2978250000001,26.020861000000025],[112.28945400000009,25.997878000000071],[112.30032400000005,25.98519200000004],[112.29225000000008,25.979979000000071],[112.29075100000011,25.972908000000075],[112.31500800000003,25.949971000000062],[112.29160000000002,25.936775000000068],[112.28286800000001,25.925950000000057],[112.28114600000004,25.913912000000039],[112.26250100000004,25.899124000000029],[112.27083500000003,25.890134000000046],[112.31483800000001,25.893694000000039],[112.31496500000003,25.88241400000004],[112.31878600000005,25.882126000000028],[112.33194000000003,25.890021000000047],[112.34470500000009,25.910302000000058],[112.3537060000001,25.910837000000072],[112.35747500000002,25.885005000000035],[112.36606600000005,25.882105000000024],[112.37466500000005,25.863492000000065],[112.3831120000001,25.860951000000057],[112.38123300000007,25.846923000000061],[112.37511800000004,25.839641000000029],[112.34590900000001,25.838335000000029],[112.35638600000004,25.811967000000038],[112.37345100000005,25.805976000000044],[112.38109300000008,25.808164000000033],[112.38493000000005,25.789567000000034],[112.40373700000009,25.774994000000049],[112.41120600000011,25.762112000000059],[112.43427300000008,25.759582000000023],[112.44419200000004,25.751832000000036],[112.44587500000011,25.749452000000076],[112.44094700000005,25.747021000000075],[112.45332400000007,25.735259000000042],[112.45207100000005,25.763374000000056],[112.46910900000012,25.768884000000071],[112.46660900000006,25.764324000000045],[112.46978400000012,25.753570000000025],[112.48536300000001,25.74164200000007],[112.51055600000007,25.734594000000072],[112.52607,25.723024000000066],[112.53860100000009,25.725721000000078],[112.54944300000011,25.713559000000032],[112.54414500000007,25.709052000000042],[112.58206300000006,25.693708000000072],[112.59115800000006,25.676250000000039],[112.58112800000004,25.658965000000023],[112.57023800000002,25.654736000000071],[112.56154500000002,25.666396000000077],[112.55009900000005,25.646920000000023],[112.51439600000003,25.640846000000067],[112.51640300000008,25.630976000000032],[112.54161600000009,25.605550000000051],[112.54178100000001,25.591255000000046],[112.55364000000009,25.579082000000028],[112.55250500000011,25.575730000000078],[112.5666950000001,25.576455000000067],[112.56514800000002,25.579740000000072],[112.57176800000002,25.588302000000056],[112.58149600000002,25.58464900000007],[112.60149800000011,25.549628000000041],[112.60530100000005,25.526682000000051],[112.6151010000001,25.525528000000065],[112.61660300000005,25.533341000000064],[112.62386600000002,25.534486000000072],[112.64366800000005,25.52947400000005],[112.63892200000009,25.502013000000034],[112.64808300000004,25.496711000000062],[112.65020900000002,25.501063000000045],[112.66030300000011,25.499559000000033],[112.66480600000011,25.492874000000029],[112.65494200000001,25.480532000000039],[112.65388200000007,25.466774000000044],[112.6769250000001,25.453360000000032],[112.68492400000002,25.452814000000046],[112.68805500000008,25.468135000000075],[112.7070490000001,25.456374000000039],[112.71586700000012,25.455684000000076],[112.71605800000009,25.46369500000003],[112.72802900000011,25.469772000000034],[112.71457300000009,25.471114000000057],[112.71361400000001,25.47935700000005],[112.72876300000007,25.472120000000075],[112.73874600000011,25.497968000000071],[112.71786900000006,25.496646000000055],[112.72572800000012,25.530322000000069],[112.69779300000005,25.543971000000056],[112.6978630000001,25.554152000000045],[112.72305700000004,25.584959000000026],[112.74241000000006,25.597502000000077],[112.75769400000001,25.598127000000034],[112.76484000000005,25.58233800000005],[112.75733600000001,25.564215000000047],[112.75671000000011,25.548265000000072],[112.77346300000011,25.547379000000035],[112.77852700000005,25.543188000000043],[112.78511400000002,25.551193000000069],[112.79489500000011,25.550880000000063],[112.7885510000001,25.540088000000026],[112.79332600000009,25.53768400000007],[112.80388700000003,25.543851000000075],[112.79855400000008,25.555954000000042],[112.78730200000007,25.556435000000079],[112.78584300000011,25.559837000000073],[112.80354900000009,25.568426000000045],[112.80352800000003,25.563635000000033],[112.81046000000003,25.564553000000046],[112.81437200000005,25.581864000000053],[112.82482800000002,25.592074000000025],[112.81006900000011,25.606598000000076],[112.8075970000001,25.61840200000006],[112.79592200000002,25.626095000000078],[112.76971000000003,25.619897000000037],[112.75697500000001,25.624619000000052],[112.75116200000002,25.635312000000056],[112.75534600000003,25.661356000000069],[112.76329400000009,25.674253000000078],[112.78462600000012,25.671087000000057],[112.77509200000009,25.661006000000043],[112.78021700000011,25.646097000000054],[112.79446500000006,25.642041000000063],[112.79942600000004,25.633184000000028],[112.81180100000006,25.65332200000006],[112.80668300000002,25.664723000000038],[112.81495700000005,25.664147000000071],[112.81507600000009,25.64603900000003],[112.82006200000001,25.658412000000055],[112.82594100000006,25.657318000000032],[112.82592800000009,25.651659000000052],[112.83055200000001,25.649376000000075],[112.8487970000001,25.657781000000057],[112.8479440000001,25.673642000000029],[112.82873700000005,25.674367000000075],[112.83377700000005,25.680451000000062],[112.85527000000002,25.681937000000062],[112.85623600000008,25.685324000000037],[112.84723900000006,25.694405000000074],[112.82313900000008,25.703558000000044],[112.81946500000004,25.720082000000048],[112.78950000000009,25.705479000000025],[112.79211200000009,25.733228000000054],[112.79397100000006,25.737389000000064],[112.79789200000005,25.732317000000023],[112.81037600000002,25.744902000000025],[112.81174400000009,25.757801000000029],[112.80807200000004,25.764597000000037],[112.82027500000004,25.770330000000058],[112.83464200000003,25.765326000000073],[112.84492900000009,25.769074000000046],[112.84493200000009,25.783264000000031],[112.84001200000012,25.789921000000049],[112.83157600000004,25.791148000000078],[112.82938600000011,25.797817000000066],[112.83867400000008,25.806163000000026],[112.83741000000009,25.816589000000079],[112.84611700000005,25.827889000000027],[112.84716200000003,25.839510000000075],[112.86504200000002,25.857058000000052],[112.87358600000005,25.877306000000033],[112.88459900000009,25.881453000000079],[112.90144400000008,25.875127000000077],[112.90145700000005,25.879555000000039],[112.90674600000011,25.879873000000032],[112.90208900000005,25.906746000000055],[112.93200400000001,25.96066200000007],[112.92475400000001,25.977630000000033],[112.91633800000011,25.985723000000064],[112.90645600000005,25.97273000000007],[112.89905600000009,25.972602000000052],[112.89568300000008,25.978669000000025],[112.88613000000009,25.981530000000078],[112.86622700000009,25.979260000000068],[112.86170700000002,25.988380000000063],[112.86732400000005,25.992750000000058],[112.86546700000008,26.003158000000042],[112.85061400000006,26.000414000000035],[112.84493900000007,26.003618000000074],[112.84511400000008,26.009925000000067],[112.82523600000002,26.010051000000033],[112.82775200000003,26.022497000000044],[112.84250700000007,26.047753000000057],[112.83646600000009,26.056749000000025],[112.82996100000003,26.058615000000032],[112.82400500000006,26.05494200000004],[112.82222800000011,26.041283000000078],[112.81715100000008,26.037744000000032],[112.8043550000001,26.044814000000031],[112.79185400000006,26.038985000000025],[112.78585300000009,26.026637000000051],[112.77753700000005,26.027190000000076],[112.77936100000011,26.034411000000034],[112.77518500000008,26.038873000000024],[112.76949000000002,26.035503000000062],[112.75460400000009,26.042259000000058],[112.7419440000001,26.078918000000044],[112.72631400000012,26.085052000000076],[112.71724800000004,26.131666000000052],[112.68189600000005,26.117506000000049],[112.68078300000002,26.126847000000055]]]},"properties":{"OBJECTID":1,"name":"桂阳县","gb":"156431021","Shape_Length":4.2778434953819255,"Shape_Area":0.26645575434249558}}]}